OBJECT_NAME,OBJECT_ID,EPOCH,MEAN_MOTION,ECCENTRICITY,INCLINATION,RA_OF_ASC_NODE,ARG_OF_PERICENTER,MEAN_ANOMALY,EPHEMERIS_TYPE,CLASSIFICATION_TYPE,NORAD_CAT_ID,ELEMENT_SET_NO,REV_AT_EPOCH,BSTAR,MEAN_MOTION_DOT,MEAN_MOTION_DDOT
LEMUR-2-ARIANNA,2025-009CU,2026-06-08T18:23:04.987680,15.02360819,.00032715,97.6884,241.2171,141.5313,218.6145,0,U,62699,999,7629,.68470226E-3,.9005E-4,0
LEMUR-2-ALISIA,2025-009DB,2026-06-09T05:04:49.413792,15.02655893,.00010748,97.6966,242.4360,189.5566,170.5638,0,U,62706,999,9896,.50239717E-3,.664E-4,0
LEMUR-2-ROUNDTRIPPER,2025-009DG,2026-06-08T18:37:14.259072,15.03652047,.00044463,97.7242,242.4675,158.6746,201.4666,0,U,62711,999,7636,.71825597E-3,.978E-4,0
LEMUR-2-MYNAMEISJEFF,2025-009DH,2026-06-08T23:22:30.720288,15.03666805,.00027259,97.7291,243.0413,184.8460,175.2740,0,U,62712,999,7639,.54819108E-3,.7449E-4,0
LEMUR-2-LEIA-PHILIP,2025-052AN,2026-06-09T04:24:56.871648,14.97294512,.00020399,97.6847,52.2692,243.2952,116.8062,0,U,63246,999,6747,.17872907E-3,.2014E-4,0
LEMUR-2-LIA-MARTIN,2025-052AQ,2026-06-09T06:12:00.459360,14.97739704,.00024101,97.6912,52.8052,169.1690,190.9585,0,U,63248,999,6749,.40177954E-3,.4655E-4,0
LEMUR-2-DELOITTE-1,2025-052BB,2026-06-09T05:36:28.059840,14.97541735,.00025802,97.6921,53.1100,113.5656,246.5838,0,U,63259,999,6750,.28527287E-3,.3271E-4,0
LEMUR-2-EMERSONROSE,2025-052BD,2026-06-09T06:48:08.592192,14.99026548,.00023625,97.6905,53.7030,69.9331,290.2146,0,U,63261,999,6755,.23555975E-3,.2797E-4,0
LEMUR-2-MARACHE-FRAN,2025-052BE,2026-06-09T04:44:12.686784,15.00017372,.00061277,97.6949,53.9165,49.2865,310.8890,0,U,63262,999,6756,.4209115E-3,.518E-4,0
LEMUR-2-THEFALCONER,2025-052BG,2026-06-08T22:11:43.479456,14.97337150,.00035646,97.6879,52.4349,58.2643,301.8926,0,U,63264,999,6745,.3765811E-3,.4314E-4,0
LEMUR-2-UNTITLED-SC,2025-061A,2026-06-08T21:22:01.163136,15.13414598,.00171282,97.5630,135.3128,296.2947,63.6524,0,U,63351,999,6633,.21127895E-3,.3719E-4,0
LEMUR-2-ESPERANZA,2025-061B,2026-06-09T04:45:50.873472,15.13510847,.00166704,97.5639,135.7106,294.6014,65.3479,0,U,63352,999,6638,.1819392E-3,.3201E-4,0
LEMUR-2-KREMPEL-BRO2,2025-061C,2026-06-08T21:32:07.276416,15.13942866,.00175334,97.5684,135.9341,287.2298,72.7014,0,U,63353,999,6635,.20576904E-3,.3675E-4,0
LEMUR-2-THERMORAPTOR,2025-061D,2026-06-09T05:02:46.600512,15.14023323,.0017231,97.5691,136.3194,284.9652,74.9672,0,U,63354,999,6640,.2073917E-3,.3713E-4,0
LEMUR-2-NEUROSPICY,2025-061E,2026-06-09T04:22:51.286656,15.14137864,.00150358,97.5616,135.9244,289.4164,70.5442,0,U,63355,999,6640,.16991091E-3,.3037E-4,0
LEMUR-2-TILLINFINITY,2025-061F,2026-06-09T05:18:05.179392,15.14724474,.00162525,97.5603,136.2473,275.8172,84.1207,0,U,63356,999,6643,.20216671E-3,.3689E-4,0
LEMUR-2-KREMPEL-BRO1,2025-061G,2026-06-09T04:38:24.680544,15.14530251,.00168435,97.5604,136.1383,277.2249,82.7067,0,U,63357,999,6642,.17597422E-3,.3185E-4,0
LEMUR-2-LANGER2SPACE,2025-061H,2026-06-08T21:18:29.459808,15.14224922,.00149781,97.5608,135.6518,288.5876,71.3728,0,U,63358,999,6636,.22276776E-3,.4013E-4,0
LEMUR-2-BALTO,2025-052BH,2026-06-09T04:22:00.914592,14.99998622,.00067044,97.6884,53.8855,77.9879,282.2096,0,U,63395,999,6756,.40427401E-3,.4971E-4,0
LEMUR-2-KRISH,2025-135AK,2026-06-09T05:59:19.647744,14.96130063,.00012855,97.7723,275.1820,108.4323,251.7038,0,U,64561,999,5273,.38136517E-3,.4234E-4,0
LEMUR-2-HUBBLE-4,2025-135AP,2026-06-09T07:06:09.196992,14.93174752,.00015306,97.7690,274.2983,352.8665,7.2532,0,U,64565,999,5269,.11101207E-3,.1102E-4,0
LEMUR-2-SEJONG-2,2025-135BL,2026-06-09T06:46:18.213600,14.96638657,.00044804,97.7685,275.3584,15.0916,345.0438,0,U,64586,999,5276,.33512336E-3,.3763E-4,0
LEMUR-2-HUBBLE-5,2025-135BT,2026-06-09T06:07:09.097824,14.94110861,.0005701,97.7710,274.8786,20.3611,339.7835,0,U,64840,999,5272,.16594429E-3,.1717E-4,0
LEMUR-2-KARENDARRELL,2025-135BU,2026-06-09T07:31:35.262912,14.99995958,.00091499,97.7668,276.5364,232.7266,127.3124,0,U,64841,999,5283,.53081425E-3,.6548E-4,0
LEMUR-2-LUCILLE-ROSE,2025-135BV,2026-06-09T06:54:08.182944,15.00053411,.00106985,97.7767,276.5201,313.8437,46.1901,0,U,65403,999,4745,.48608724E-3,.6001E-4,0
LEMUR-2-AFFIE-WAUWIE,2025-248C,2026-06-09T06:29:53.901600,15.26913101,.00084766,45.3882,157.8710,30.7029,329.4355,0,U,66295,999,3338,.44417572E-3,.11685E-3,0
LEMUR-2-DEANANDMAEVE,2025-276N,2026-06-08T18:06:55.223712,15.19629534,.00064688,97.4209,233.3710,41.6458,318.5268,0,U,66678,999,2913,.3524E-3,.7447E-4,0
LEMUR-2-STAS-GORBUK,2025-276W,2026-06-09T02:19:15.532320,15.19293405,.00059173,97.4245,233.7628,41.0209,319.1470,0,U,66686,999,2918,.23570032E-3,.4908E-4,0
LEMUR-2-TEODOR,2025-276DG,2026-06-08T18:14:58.392384,15.20959604,.00018446,97.4147,233.6579,123.1960,236.9453,0,U,66768,999,2916,.28970999E-3,.6349E-4,0
